GGSE-4
1 2828U 67053C 20027.25724299 -.00000053 00000-0 36097-6 0 9992
2 2828 069.9716 031.1069 0010036 307.3560 052.6631 13.97443436682265
IRASx
1 13777U 83004A 20027.24330355 -.00000103 00000-0 -40167-4 0 9994
2 13777 098.9545 212.8908 0017534 296.7193 063.2177 14.00452582559808
IRAS2
1 13777U 83004A   20029.52953267 -.00000118 00000-0 -49936-4 0  9999
2 13777 098.9546 215.1308 0017563 289.8303 070.0968 14.00452307560123
